QIANFAN-17              
1 60395U 24140S   25196.90039364  .00000109  00000+0  15053-3 0  9997
2 60395  88.9855 314.8896 0012929 278.4683  81.5003 13.50956997 47909
QIANFAN-18              
1 60396U 24140T   25196.80580882  .00000118  00000+0  16477-3 0  9994
2 60396  88.9847 314.4445 0012395 258.5782 101.3977 13.50952526 47289
QIANFAN-19              
1 61552U 24185A   25196.86331164  .00000306  00000+0  15350-3 0  9999
2 61552  88.9829  95.1313 0009532  70.5471 289.6745 14.14102398 48488
QIANFAN-20              
1 61553U 24185B   25196.95575471  .00000244  00000+0  13353-3 0  9993
2 61553  88.9828  95.2931 0008586  96.0329 264.1833 14.08656468 48401
QIANFAN-21              
1 61554U 24185C   25196.91428714  .00000424  00000+0  18406-3 0  9991
2 61554  88.9742  94.5444 0012497 122.0134 238.2274 14.22342918 48676
QIANFAN-22              
1 61555U 24185D   25196.87033928  .00000120  00000+0  92273-4 0  9994
2 61555  88.9814  95.6811 0009081  89.8918 270.3294 13.86229387 48179
QIANFAN-23              
1 61556U 24185E   25196.97802370  .00000366  00000+0  17825-3 0  9992
2 61556  88.9821  94.9971 0010425  79.5430 280.6932 14.16070783 48559
QIANFAN-24              
1 61557U 24185F   25196.90295766  .00000498  00000+0  21240-3 0  9993
2 61557  88.9801  94.6562 0011995  69.5929 290.6550 14.23544691 48702
